[{"OBJECT_NAME":"STARLINK-3937","OBJECT_ID":"2022-051K","EPOCH":"2026-03-09T13:09:21.906144","MEAN_MOTION":15.08835134,"ECCENTRICITY":0.0001394,"INCLINATION":53.2174,"RA_OF_ASC_NODE":129.756,"ARG_OF_PERICENTER":88.4128,"MEAN_ANOMALY":271.7023,"EPHEMERIS_TYPE":0,"CLASSIFICATION_TYPE":"U","NORAD_CAT_ID":52542,"ELEMENT_SET_NO":999,"REV_AT_EPOCH":21142,"BSTAR":7.7679e-5,"MEAN_MOTION_DOT":9.48e-6,"MEAN_MOTION_DDOT":0},{"OBJECT_NAME":"LEMUR-2-SIERRINI","OBJECT_ID":"2024-149DR","EPOCH":"2026-03-09T19:24:50.445216","MEAN_MOTION":15.08682764,"ECCENTRICITY":0.00065795,"INCLINATION":97.6873,"RA_OF_ASC_NODE":151.1225,"ARG_OF_PERICENTER":147.8458,"MEAN_ANOMALY":212.3173,"EPHEMERIS_TYPE":0,"CLASSIFICATION_TYPE":"U","NORAD_CAT_ID":60579,"ELEMENT_SET_NO":999,"REV_AT_EPOCH":8546,"BSTAR":0.00092040134,"MEAN_MOTION_DOT":0.00014386,"MEAN_MOTION_DDOT":0}]
