STARLINK-3937           
1 52542U 22051K   26068.54817021  .00000948  00000+0  77679-4 0  9998
2 52542  53.2174 129.7560 0001394  88.4128 271.7023 15.08835134211420
LEMUR-2-SIERRINI        
1 60579U 24149DR  26068.80891719  .00014386  00000+0  92040-3 0  9991
2 60579  97.6873 151.1225 0006580 147.8458 212.3173 15.08682764 85461
